{
    "links": {
        "self": "http://www.neowsapp.com/rest/v1/neo/3760436?api_key=iIulBulltgU6a56xZRHN4H3l9WmuAYTsLGpBGhQ2"
    },
    "id": "3760436",
    "neo_reference_id": "3760436",
    "name": "(2016 TG10)",
    "designation": "2016 TG10",
    "nasa_jpl_url": "http://ssd.jpl.nasa.gov/sbdb.cgi?sstr=3760436",
    "absolute_magnitude_h": 25.5,
    "estimated_diameter": {
        "kilometers": {
            "estimated_diameter_min": 0.0211132445,
            "estimated_diameter_max": 0.0472106499
        },
        "meters": {
            "estimated_diameter_min": 21.113244479,
            "estimated_diameter_max": 47.2106498806
        },
        "miles": {
            "estimated_diameter_min": 0.0131191578,
            "estimated_diameter_max": 0.0293353287
        },
        "feet": {
            "estimated_diameter_min": 69.2691770164,
            "estimated_diameter_max": 154.8905885541
        }
    },
    "is_potentially_hazardous_asteroid": false,
    "close_approach_data": [
        {
            "close_approach_date": "2016-09-30",
            "close_approach_date_full": "2016-Sep-30 23:06",
            "epoch_date_close_approach": 1475276760000,
            "relative_velocity": {
                "kilometers_per_second": "12.1977340923",
                "kilometers_per_hour": "43911.8427323797",
                "miles_per_hour": "27285.1113911278"
            },
            "miss_distance": {
                "astronomical": "0.0737538101",
                "lunar": "28.6902321289",
                "kilometers": "11033412.895344487",
                "miles": "6855844.8634164406"
            },
            "orbiting_body": "Earth"
        }
    ],
    "orbital_data": {
        "orbit_id": "3",
        "orbit_determination_date": "2017-04-06 08:23:23",
        "first_observation_date": "2016-10-04",
        "last_observation_date": "2016-10-08",
        "data_arc_in_days": 4,
        "observations_used": 24,
        "orbit_uncertainty": "8",
        "minimum_orbit_intersection": ".0737046",
        "jupiter_tisserand_invariant": "4.557",
        "epoch_osculation": "2457666.5",
        "eccentricity": ".2592335848064256",
        "semi_major_axis": "1.439708719329791",
        "inclination": "21.96002092416147",
        "ascending_node_longitude": "189.9624795935486",
        "orbital_period": "630.9724238991429",
        "perihelion_distance": "1.066487866940861",
        "perihelion_argument": "163.4092857990806",
        "aphelion_distance": "1.81292957171872",
        "perihelion_time": "2457647.791875614148",
        "mean_anomaly": "10.67388133587159",
        "mean_motion": ".5705479136082559",
        "equinox": "J2000",
        "orbit_class": {
            "orbit_class_type": "AMO",
            "orbit_class_description": "Near-Earth asteroid orbits similar to that of 1221 Amor",
            "orbit_class_range": "1.017 AU < q (perihelion) < 1.3 AU"
        }
    },
    "is_sentry_object": false
}